{
  "type": "FeatureCollection",
  "features": [
    {
      "type": "Feature",
      "properties": {
        "norad_id": 34464,
        "name": "COSMOS 2251 DEB",
        "group": "cosmos-2251-debris",
        "lat": -45.971303035200705,
        "lon": -103.50557316003247,
        "alt_km": 477.78146050031773,
        "timestamp": "2025-12-21T16:47:55.133362+00:00",
        "meta_object_name": "COSMOS 2251 DEB",
        "meta_object_id": "1993-036TH",
        "meta_epoch": "2025-12-21T11:05:18.165120",
        "meta_mean_motion": 15.28193165,
        "meta_eccentricity": 0.0014649,
        "meta_inclination": 73.9905,
        "meta_ra_of_asc_node": 59.7213,
        "meta_arg_of_pericenter": 242.0333,
        "meta_mean_anomaly": 117.9387,
        "meta_ephemeris_type": 0,
        "meta_classification_type": "U",
        "meta_norad_cat_id": 34464,
        "meta_element_set_no": 999,
        "meta_rev_at_epoch": 89973,
        "meta_bstar": 0.002179,
        "meta_mean_motion_dot": 0.00060526,
        "meta_mean_motion_ddot": 0,
        "tle_line1": "1 34464U 93036TH  25355.46201580  .00060526  00000+0  21790-2 0  9997",
        "tle_line2": "2 34464  73.9905  59.7213 0014649 242.0333 117.9387 15.28193165899737"
      },
      "geometry": {
        "type": "Point",
        "coordinates": [
          -103.50557316003247,
          -45.971303035200705
        ]
      }
    },
    {
      "type": "Feature",
      "properties": {
        "norad_id": 34468,
        "name": "COSMOS 2251 DEB",
        "group": "cosmos-2251-debris",
        "lat": 31.731127148466406,
        "lon": 110.62899867562957,
        "alt_km": 777.9550603735961,
        "timestamp": "2025-12-21T16:47:55.133371+00:00",
        "meta_object_name": "COSMOS 2251 DEB",
        "meta_object_id": "1993-036TM",
        "meta_epoch": "2025-12-21T10:00:36.756576",
        "meta_mean_motion": 14.476462,
        "meta_eccentricity": 0.0076308,
        "meta_inclination": 74.0131,
        "meta_ra_of_asc_node": 100.9476,
        "meta_arg_of_pericenter": 244.1152,
        "meta_mean_anomaly": 115.2126,
        "meta_ephemeris_type": 0,
        "meta_classification_type": "U",
        "meta_norad_cat_id": 34468,
        "meta_element_set_no": 999,
        "meta_rev_at_epoch": 88587,
        "meta_bstar": 0.00027742,
        "meta_mean_motion_dot": 1.031e-05,
        "meta_mean_motion_ddot": 0,
        "tle_line1": "1 34468U 93036TM  25355.41709209  .00001031  00000+0  27742-3 0  9997",
        "tle_line2": "2 34468  74.0131 100.9476 0076308 244.1152 115.2126 14.47646200885871"
      },
      "geometry": {
        "type": "Point",
        "coordinates": [
          110.62899867562957,
          31.731127148466406
        ]
      }
    },
    {
      "type": "Feature",
      "properties": {
        "norad_id": 34472,
        "name": "COSMOS 2251 DEB",
        "group": "cosmos-2251-debris",
        "lat": 72.4428927153518,
        "lon": 147.80443072836,
        "alt_km": 1141.5662606747483,
        "timestamp": "2025-12-21T16:47:55.133381+00:00",
        "meta_object_name": "COSMOS 2251 DEB",
        "meta_object_id": "1993-036TR",
        "meta_epoch": "2025-12-21T12:52:08.926752",
        "meta_mean_motion": 13.70343869,
        "meta_eccentricity": 0.0327843,
        "meta_inclination": 74.0844,
        "meta_ra_of_asc_node": 83.6777,
        "meta_arg_of_pericenter": 212.7768,
        "meta_mean_anomaly": 145.2635,
        "meta_ephemeris_type": 0,
        "meta_classification_type": "U",
        "meta_norad_cat_id": 34472,
        "meta_element_set_no": 999,
        "meta_rev_at_epoch": 83847,
        "meta_bstar": 0.00053722,
        "meta_mean_motion_dot": 6.71e-06,
        "meta_mean_motion_ddot": 0,
        "tle_line1": "1 34472U 93036TR  25355.53621443  .00000671  00000+0  53722-3 0  9994",
        "tle_line2": "2 34472  74.0844  83.6777 0327843 212.7768 145.2635 13.70343869838477"
      },
      "geometry": {
        "type": "Point",
        "coordinates": [
          147.80443072836,
          72.4428927153518
        ]
      }
    },
    {
      "type": "Feature",
      "properties": {
        "norad_id": 34474,
        "name": "COSMOS 2251 DEB",
        "group": "cosmos-2251-debris",
        "lat": -55.61003369698576,
        "lon": -74.11262764368378,
        "alt_km": 853.3026342475987,
        "timestamp": "2025-12-21T16:47:55.133391+00:00",
        "meta_object_name": "COSMOS 2251 DEB",
        "meta_object_id": "1993-036TT",
        "meta_epoch": "2025-12-21T07:31:55.934112",
        "meta_mean_motion": 14.06476369,
        "meta_eccentricity": 0.0199137,
        "meta_inclination": 74.0784,
        "meta_ra_of_asc_node": 311.2089,
        "meta_arg_of_pericenter": 22.9422,
        "meta_mean_anomaly": 126.0693,
        "meta_ephemeris_type": 0,
        "meta_classification_type": "U",
        "meta_norad_cat_id": 34474,
        "meta_element_set_no": 999,
        "meta_rev_at_epoch": 85629,
        "meta_bstar": 0.0019392,
        "meta_mean_motion_dot": 3.816e-05,
        "meta_mean_motion_ddot": 0,
        "tle_line1": "1 34474U 93036TT  25355.31384183  .00003816  00000+0  19392-2 0  9997",
        "tle_line2": "2 34474  74.0784 311.2089 0199137  22.9422 126.0693 14.06476369856292"
      },
      "geometry": {
        "type": "Point",
        "coordinates": [
          -74.11262764368378,
          -55.61003369698576
        ]
      }
    },
    {
      "type": "Feature",
      "properties": {
        "norad_id": 34476,
        "name": "COSMOS 2251 DEB",
        "group": "cosmos-2251-debris",
        "lat": -24.882167866376317,
        "lon": -104.95463678808699,
        "alt_km": 910.2044146869857,
        "timestamp": "2025-12-21T16:47:55.133402+00:00",
        "meta_object_name": "COSMOS 2251 DEB",
        "meta_object_id": "1993-036TV",
        "meta_epoch": "2025-12-19T15:07:53.916960",
        "meta_mean_motion": 13.82094314,
        "meta_eccentricity": 0.0321638,
        "meta_inclination": 74.0055,
        "meta_ra_of_asc_node": 70.8879,
        "meta_arg_of_pericenter": 289.0132,
        "meta_mean_anomaly": 67.6405,
        "meta_ephemeris_type": 0,
        "meta_classification_type": "U",
        "meta_norad_cat_id": 34476,
        "meta_element_set_no": 999,
        "meta_rev_at_epoch": 83733,
        "meta_bstar": 0.0025746,
        "meta_mean_motion_dot": 4.089e-05,
        "meta_mean_motion_ddot": 0,
        "tle_line1": "1 34476U 93036TV  25353.63048515  .00004089  00000+0  25746-2 0  9991",
        "tle_line2": "2 34476  74.0055  70.8879 0321638 289.0132  67.6405 13.82094314837331"
      },
      "geometry": {
        "type": "Point",
        "coordinates": [
          -104.95463678808699,
          -24.882167866376317
        ]
      }
    },
    {
      "type": "Feature",
      "properties": {
        "norad_id": 34477,
        "name": "COSMOS 2251 DEB",
        "group": "cosmos-2251-debris",
        "lat": -3.9884134756380067,
        "lon": 51.278728038936606,
        "alt_km": 731.5333020513008,
        "timestamp": "2025-12-21T16:47:55.133412+00:00",
        "meta_object_name": "COSMOS 2251 DEB",
        "meta_object_id": "1993-036TW",
        "meta_epoch": "2025-12-21T07:28:47.243424",
        "meta_mean_motion": 14.56918163,
        "meta_eccentricity": 0.0076788,
        "meta_inclination": 73.9787,
        "meta_ra_of_asc_node": 53.1663,
        "meta_arg_of_pericenter": 238.7332,
        "meta_mean_anomaly": 240.7629,
        "meta_ephemeris_type": 0,
        "meta_classification_type": "U",
        "meta_norad_cat_id": 34477,
        "meta_element_set_no": 999,
        "meta_rev_at_epoch": 88750,
        "meta_bstar": 0.00057202,
        "meta_mean_motion_dot": 2.641e-05,
        "meta_mean_motion_ddot": 0,
        "tle_line1": "1 34477U 93036TW  25355.31165791  .00002641  00000+0  57202-3 0  9990",
        "tle_line2": "2 34477  73.9787  53.1663 0076788 238.7332 240.7629 14.56918163887508"
      },
      "geometry": {
        "type": "Point",
        "coordinates": [
          51.278728038936606,
          -3.9884134756380067
        ]
      }
    },
    {
      "type": "Feature",
      "properties": {
        "norad_id": 34478,
        "name": "COSMOS 2251 DEB",
        "group": "cosmos-2251-debris",
        "lat": 73.96944629212712,
        "lon": 83.57352492296194,
        "alt_km": 543.0199482664948,
        "timestamp": "2025-12-21T16:47:55.133422+00:00",
        "meta_object_name": "COSMOS 2251 DEB",
        "meta_object_id": "1993-036TX",
        "meta_epoch": "2025-12-21T04:12:46.485792",
        "meta_mean_motion": 15.08639002,
        "meta_eccentricity": 0.00340243,
        "meta_inclination": 74.0409,
        "meta_ra_of_asc_node": 349.5203,
        "meta_arg_of_pericenter": 208.4525,
        "meta_mean_anomaly": 276.406,
        "meta_ephemeris_type": 0,
        "meta_classification_type": "U",
        "meta_norad_cat_id": 34478,
        "meta_element_set_no": 999,
        "meta_rev_at_epoch": 89100,
        "meta_bstar": 0.0018985498,
        "meta_mean_motion_dot": 0.00030215,
        "meta_mean_motion_ddot": 0,
        "tle_line1": "1 34478U 93036TX  25355.17553803  .00030215  00000+0  18985-2 0  9992",
        "tle_line2": "2 34478  74.0409 349.5203 0034024 208.4525 276.4060 15.08639002891004"
      },
      "geometry": {
        "type": "Point",
        "coordinates": [
          83.57352492296194,
          73.96944629212712
        ]
      }
    }
  ]
}